{
"type": "FeatureCollection",
"name": "study_area",
"crs": { "type": "name", "properties": { "name": "urn:ogc:def:crs:EPSG::32643" } },
"features": [
{ "type": "Feature", "properties": { "taluk_id": "TAL_01", "taluk_name": "Ambasamudram", "district": "Tirunelveli", "state": "Tamil Nadu", "area_km2": 122.14 }, "geometry": { "type": "Polygon", "coordinates": [ [ [ 761858.701957096112892, 965827.772087034652941 ], [ 768449.639945103786886, 968083.006812776089646 ], [ 773961.266916235443205, 967012.493342129630037 ], [ 776185.181085802498274, 963707.37470001319889 ], [ 774562.806639027548954, 959270.197456284309737 ], [ 769622.100851004011929, 957024.896225216682069 ], [ 764109.502883177367039, 958096.313629042473622 ], [ 761336.073659599176608, 961398.43148170306813 ], [ 761858.701957096112892, 965827.772087034652941 ] ] ] } },
{ "type": "Feature", "properties": { "taluk_id": "TAL_02", "taluk_name": "Cheranmahadevi", "district": "Tirunelveli", "state": "Tamil Nadu", "area_km2": 118.51 }, "geometry": { "type": "Polygon", "coordinates": [ [ [ 773961.266916235443205, 967012.493342129630037 ], [ 780570.625176821602508, 966503.364262827322818 ], [ 788289.179522270336747, 964896.206079675350338 ], [ 790522.226207979838364, 960484.810830223723315 ], [ 786140.15984757815022, 957134.450028198189102 ], [ 779532.715870240936056, 957089.845024621346965 ], [ 774562.806639027548954, 959270.197456284309737 ], [ 776185.181085802498274, 963707.37470001319889 ], [ 773961.266916235443205, 967012.493342129630037 ] ] ] } }
]
}
