{
  "type": "FeatureCollection",
  "name": "aoi_ambasamudram_cheranmahadevi",
  "crs": {
    "type": "name",
    "properties": {
      "name": "urn:ogc:def:crs:OGC:1.3:CRS84"
    }
  },
  "features": [
    {
      "type": "Feature",
      "properties": {
        "district": "Tirunelveli",
        "state": "Tamil Nadu",
        "taluk_1": "Ambasamudram",
        "taluk_2": "Cheranmahadevi",
        "basin": "Thamirabarani River Basin",
        "min_area_req_sq_km": 20.0,
        "primary_crops": ["Paddy", "Banana"]
      },
      "geometry": {
        "type": "Polygon",
        "coordinates": [
          [
            [77.4200, 8.6600],
            [77.5600, 8.6600],
            [77.5600, 8.7300],
            [77.4200, 8.7300],
            [77.4200, 8.6600]
          ]
        ]
      }
    }
  ]
}
